OBJECT_NAME,OBJECT_ID,EPOCH,MEAN_MOTION,ECCENTRICITY,INCLINATION,RA_OF_ASC_NODE,ARG_OF_PERICENTER,MEAN_ANOMALY,EPHEMERIS_TYPE,CLASSIFICATION_TYPE,NORAD_CAT_ID,ELEMENT_SET_NO,REV_AT_EPOCH,BSTAR,MEAN_MOTION_DOT,MEAN_MOTION_DDOT
KUIPER-00619,2026-151Q,2026-07-17T10:48:07.293024,15.38577098,.0001932,51.8811,169.3464,65.4654,294.6534,0,U,69777,999,236,.33433E-3,.12561E-3,0
KUIPER-00621,2026-151R,2026-07-17T21:46:09.329088,15.38358416,.00031394,51.8792,167.1652,109.4189,250.7138,0,U,69778,999,243,.3402018E-3,.12697E-3,0
KUIPER-00622,2026-151S,2026-07-17T12:43:37.825824,15.36960715,.0006772,51.8738,169.1357,155.1663,204.9651,0,U,69779,999,237,-.59527E-4,-.2579E-4,0
KUIPER-00623,2026-151T,2026-07-17T06:22:24.548160,15.37672053,.0006129,51.8777,170.3650,146.6000,213.5375,0,U,69780,999,233,.3498E-2,.133416E-2,0
KUIPER-00626,2026-151U,2026-07-17T22:23:06.152640,15.35156377,.00096825,51.8714,167.3279,170.7412,189.3754,0,U,69781,999,243,-.72897943E-3,-.25597E-3,0
KUIPER-00627,2026-151V,2026-07-17T22:26:00.047328,15.34851723,.00109441,51.8697,167.3391,175.9224,184.1852,0,U,69782,999,243,-.14428845E-2,-.49669E-3,0
KUIPER-00629,2026-151W,2026-07-17T22:00:01.999584,15.31966930,.00069418,51.8775,167.3500,164.1206,145.4064,0,U,69783,999,275,-.31128878E-1,-.896769E-2,0
KUIPER-00631,2026-151X,2026-07-17T22:00:01.999584,15.33681347,.00086995,51.8734,167.3463,169.4356,135.7280,0,U,69784,999,130,-.6653595E-1,-.1965235E-1,0
KUIPER-00634,2026-151Y,2026-07-17T21:54:36.932544,15.37783924,.00037451,51.8777,167.2035,143.3185,216.8059,0,U,69785,999,243,.37197347E-3,.13659E-3,0
KUIPER-00639,2026-151Z,2026-07-17T12:56:37.614336,15.35626821,.0009112,51.8689,169.1889,170.0527,190.0641,0,U,69786,999,237,-.17706E-2,-.62241E-3,0
KUIPER-00641,2026-151AA,2026-07-17T14:39:31.848192,15.34689931,.00115144,51.8674,168.9170,170.2077,189.9135,0,U,69787,999,238,.17028551E-3,.5443E-4,0
KUIPER-00644,2026-151AB,2026-07-17T22:00:01.999584,15.36519684,.00084665,51.8745,167.3215,168.8415,144.5711,0,U,69788,999,336,.85474634E-3,.30705E-3,0
KUIPER-00646,2026-151AC,2026-07-17T12:55:38.553024,15.35928647,.0009317,51.8700,169.1868,172.9789,187.1329,0,U,69789,999,237,.33092E-3,.11396E-3,0
KUIPER-00647,2026-151AD,2026-07-17T22:24:22.557024,15.35159083,.00102443,51.8690,167.3315,174.9482,185.1609,0,U,69790,999,243,-.91443973E-4,-.356E-4,0
KUIPER-00662,2026-151AE,2026-07-17T22:12:10.744704,15.36532861,.00083949,51.8741,167.2814,168.6243,191.4935,0,U,69791,999,243,.74472484E-4,.2308E-4,0
LINK,2026-152A,2026-07-17T14:28:31.963008,15.67732202,.00250584,20.5911,308.8596,28.8585,331.3243,0,U,69792,999,223,.11460838E-2,.136758E-2,0
2026-152B,2026-152B,2026-07-17T13:15:06.090912,15.64949376,.0023033,20.5981,309.4890,25.7463,334.4126,0,U,69793,999,222,.30884E-3,.33116E-3,0
ISS OBJECT YJ,1998-067YJ,2026-07-17T22:50:00.245472,15.50136578,.00077387,51.6314,147.7493,321.3939,38.6496,0,U,69794,999,242,.33995423E-3,.19103E-3,0
ISS OBJECT YK,1998-067YK,2026-07-16T21:58:06.063744,15.50831471,.00066658,51.6314,152.8314,326.0799,33.9763,0,U,69795,999,226,.5991842E-3,.34939E-3,0
ISS OBJECT YL,1998-067YL,2026-07-17T21:11:58.196544,15.50617884,.00086975,51.6314,148.0449,321.8507,38.1866,0,U,69796,999,240,.46776999E-3,.26954E-3,0
ISS OBJECT YM,1998-067YM,2026-07-17T21:11:29.995584,15.50663132,.00095201,51.6314,148.0428,313.1812,46.8381,0,U,69797,999,239,.48085137E-3,.27777E-3,0
ISS OBJECT YN,1998-067YN,2026-07-16T22:00:46.562112,15.50372933,.00092126,51.6316,152.8433,321.6470,38.3863,0,U,69798,999,226,.32406393E-3,.1835E-3,0
PROVES-ELECTRA,1998-067YP,2026-07-17T04:10:34.012992,15.50615173,.00097002,51.6315,151.5587,310.8273,49.1874,0,U,69799,999,229,.41820358E-3,.24046E-3,0
QIANFAN-201,2026-153A,2026-07-17T20:09:13.631040,14.25481230,.00061997,88.9972,358.7543,157.8285,202.3177,0,U,69800,999,192,.17182966E-4,.55E-6,0
QIANFAN-202,2026-153B,2026-07-17T22:23:05.020800,14.18843511,.00069698,88.9926,358.7377,166.0620,194.0763,0,U,69801,999,193,.4136479E-4,.1E-5,0
QIANFAN-203,2026-153C,2026-07-17T22:12:56.169504,14.22391056,.00076129,88.9925,358.7366,175.0675,185.0592,0,U,69802,999,193,.33351128E-4,.89E-6,0
QIANFAN-204,2026-153D,2026-07-17T22:17:31.682688,14.20114361,.00079271,88.9926,358.7370,169.6418,190.4937,0,U,69803,999,193,.38983534E-4,.98E-6,0
QIANFAN-205,2026-153E,2026-07-17T22:14:58.630272,14.22264721,.00078179,88.9924,358.7365,173.6212,186.5080,0,U,69804,999,193,.36474602E-4,.96E-6,0
QIANFAN-206,2026-153F,2026-07-17T22:01:14.422656,14.24034614,.00083022,88.9925,358.7352,174.2829,185.8459,0,U,69805,999,193,.12897484E-4,.44E-6,0
QIANFAN-207,2026-153G,2026-07-17T21:58:51.860928,14.24250974,.00077399,88.9925,358.7350,174.3025,185.8257,0,U,69806,999,193,.58423062E-4,.149E-5,0
